STARLINK-37956          
1 69711U 26147H   26202.25003472 -.02516795  00000+0 -25522-1 0  9992
2 69711  97.2838 238.9779 0001407  65.2639 296.5595 15.68547160  4717
STARLINK-38043          
1 69712U 26147J   26202.05015438  .00313033  00000+0  15721-2 0  9993
2 69712  97.2828 238.7905 0000974  94.4870 265.6510 15.80884904  4780
STARLINK-38020          
1 69713U 26147K   26202.25003472 -.02454747  00000+0 -24309-1 0  9994
2 69713  97.2837 238.9873 0001350  69.4789 305.2467 15.69033524  4713
STARLINK-38059          
1 69714U 26147L   26202.25003472 -.02485212  00000+0 -24959-1 0  9997
2 69714  97.2843 238.9811 0001387  57.3586 310.8078 15.68736429  4717
STARLINK-38061          
1 69715U 26147M   26200.52867195  .00166763  00000+0  85280-3 0  9995
2 69715  97.2822 237.1863 0000273  37.1076 323.0211 15.80867548  4543
STARLINK-38060          
1 69716U 26147N   26202.04714770  .00230201  00000+0  11661-2 0  9995
2 69716  97.2834 238.7949 0001087 112.1113 248.0271 15.80909385  4783
STARLINK-38040          
1 69717U 26147P   26202.25003472 -.02677082  00000+0 -23143-1 0  9992
2 69717  97.2838 239.0012 0001622  61.5171 354.8252 15.72566198  4809
STARLINK-37989          
1 69718U 26147Q   26202.25003472 -.00769567  00000+0 -70942-2 0  9991
2 69718  97.2841 238.9923 0001307  60.7960 335.4199 15.69801495  4803
STARLINK-38039          
1 69719U 26147R   26202.10819523  .00124461  00000+0  63955-3 0  9991
2 69719  97.2837 238.8643 0001426  89.6824 270.4607 15.80875195  4799
STARLINK-38003          
1 69720U 26147S   26202.04414134  .00193862  00000+0  98675-3 0  9993
2 69720  97.2842 238.7986 0001102  94.3673 265.7721 15.80899463  4789
STARLINK-38014          
1 69721U 26147T   26202.04339152  .00209320  00000+0  10603-2 0  9991
2 69721  97.2822 238.7991 0000679 318.5519  41.5697 15.80964701  4782
STARLINK-37915          
1 69722U 26147U   26202.04265231  .00250503  00000+0  12698-2 0  9993
2 69722  97.2834 238.8001 0001421  94.4255 265.7176 15.80841944  4787
STARLINK-38007          
1 69723U 26147V   26202.04503188  .00196754  00000+0  10028-2 0  9992
2 69723  97.2837 238.7959 0000839  62.7984 297.3370 15.80861872  4780
STARLINK-38008          
1 69724U 26147W   26202.04113775  .00213574  00000+0  10851-2 0  9996
2 69724  97.2827 238.8011 0002016 109.5484 250.6002 15.80888268  4786
STARLINK-38021          
1 69725U 26147X   26202.10395653 -.01199514  00000+0 -75506-2 0  9999
2 69725  97.2845 238.8701 0001965 345.8947  14.2265 15.79268625  4797
STARLINK-38015          
1 69726U 26147Y   26202.25003472 -.00180950  00000+0 -12347-2 0  9998
2 69726  97.2850 238.9958 0001239  83.4420 317.3279 15.75253504  4804
STARLINK-38010          
1 69727U 26147Z   26202.08333709  .00117928  00000+0  77915-3 0  9995
2 69727  97.2841 238.7438 0000743  25.4325 334.6977 15.75234389  4789
SXM-11                  
1 69728U 26148A   26202.25600182  .00000011  00000+0  00000+0 0  9999
2 69728   0.0959 264.8117 0002082 188.6040 177.2260  1.00271001   383
HAIYANG-2E              
1 69737U 26149A   26202.25228337 -.00000038  00000+0  62961-5 0  9998
2 69737  99.3445 209.0948 0001517  84.5350 275.5975 13.79298710  2659
CZ-4B R/B               
1 69738U 26149B   26201.99855108  .00000061  00000+0  37488-4 0  9991
2 69738  99.3219 210.4320 0197897 313.3388  45.1444 14.30069024  2968
STARLINK-38033          
1 69739U 26150A   26202.09817477  .00125888  00000+0  64690-3 0  9992
2 69739  97.2843  40.8017 0000525   4.6993 355.4280 15.80871184  4253
STARLINK-38076          
1 69740U 26150B   26202.01091626  .00153252  00000+0  10092-2 0  9998
2 69740  97.2835  40.6115 0002320  74.3701 285.7820 15.75206888  4239
STARLINK-38074          
1 69741U 26150C   26202.25003472 -.00158514  00000+0 -10793-2 0  9993
2 69741  97.2856  40.9418 0001449  83.3667  11.8221 15.75241212  4260
STARLINK-38041          
1 69742U 26150D   26202.11573167  .00122398  00000+0  80847-3 0  9999
2 69742  97.2860  40.7767 0000554 119.2765 240.8556 15.75227517  4251
STARLINK-38087          
1 69743U 26150E   26202.10832181  .00189682  00000+0  12444-2 0  9999
2 69743  97.2850  40.7862 0000753  97.2972 262.8379 15.75192735  4253
STARLINK-38078          
1 69744U 26150F   26202.03004114  .00270040  00000+0  13641-2 0  9998
2 69744  97.2856  40.7402 0002181  57.2378 302.9101 15.80867225  4240
STARLINK-38047          
1 69745U 26150G   26202.11396191  .00149522  00000+0  98584-3 0  9997
2 69745  97.2863  40.7793 0001011 245.0774 115.0387 15.75191013  4259
STARLINK-38046          
1 69746U 26150H   26202.25003472 -.00154640  00000+0 -10524-2 0  9996
2 69746  97.2856  40.9635 0001453  93.1009  52.0837 15.75240006  4271
STARLINK-38067          
1 69747U 26150J   26202.06279508  .00199064  00000+0  13054-2 0  9999
2 69747  97.2850  40.6954 0002009  76.7430 283.4059 15.75174711  4242
STARLINK-37988          
1 69748U 26150K   26202.06102960  .00186117  00000+0  12226-2 0  9992
2 69748  97.2848  40.6979 0001679  83.0426 277.1030 15.75172889  4248
