OBJECT_NAME,OBJECT_ID,EPOCH,MEAN_MOTION,ECCENTRICITY,INCLINATION,RA_OF_ASC_NODE,ARG_OF_PERICENTER,MEAN_ANOMALY,EPHEMERIS_TYPE,CLASSIFICATION_TYPE,NORAD_CAT_ID,ELEMENT_SET_NO,REV_AT_EPOCH,BSTAR,MEAN_MOTION_DOT,MEAN_MOTION_DDOT
STARLINK-37956,2026-147H,2026-07-21T06:00:02.999808,15.68547160,.00014072,97.2838,238.9779,65.2639,296.5595,0,U,69711,999,471,-.2552167E-1,-.2516795E-1,0
STARLINK-38043,2026-147J,2026-07-21T01:12:13.338432,15.80884904,.00009745,97.2828,238.7905,94.4870,265.6510,0,U,69712,999,478,.15720749E-2,.313033E-2,0
STARLINK-38020,2026-147K,2026-07-21T06:00:02.999808,15.69033524,.00013509,97.2837,238.9873,69.4789,305.2467,0,U,69713,999,471,-.24309424E-1,-.2454747E-1,0
STARLINK-38059,2026-147L,2026-07-21T06:00:02.999808,15.68736429,.00013877,97.2843,238.9811,57.3586,310.8078,0,U,69714,999,471,-.24959232E-1,-.2485212E-1,0
STARLINK-38061,2026-147M,2026-07-19T12:41:17.256480,15.80867548,.0000273,97.2822,237.1863,37.1076,323.0211,0,U,69715,999,454,.85280438E-3,.166763E-2,0
STARLINK-38060,2026-147N,2026-07-21T01:07:53.561280,15.80909385,.00010879,97.2834,238.7949,112.1113,248.0271,0,U,69716,999,478,.11661327E-2,.230201E-2,0
STARLINK-38040,2026-147P,2026-07-21T06:00:02.999808,15.72566198,.00016222,97.2838,239.0012,61.5171,354.8252,0,U,69717,999,480,-.23143084E-1,-.2677082E-1,0
STARLINK-37989,2026-147Q,2026-07-21T06:00:02.999808,15.69801495,.00013075,97.2841,238.9923,60.7960,335.4199,0,U,69718,999,480,-.70941981E-2,-.769567E-2,0
STARLINK-38039,2026-147R,2026-07-21T02:35:48.067872,15.80875195,.00014267,97.2837,238.8643,89.6824,270.4607,0,U,69719,999,479,.63955267E-3,.124461E-2,0
STARLINK-38003,2026-147S,2026-07-21T01:03:33.811776,15.80899463,.00011023,97.2842,238.7986,94.3673,265.7721,0,U,69720,999,478,.98674561E-3,.193862E-2,0
STARLINK-38014,2026-147T,2026-07-21T01:02:29.027328,15.80964701,.00006798,97.2822,238.7991,318.5519,41.5697,0,U,69721,999,478,.10602993E-2,.20932E-2,0
STARLINK-37915,2026-147U,2026-07-21T01:01:25.159584,15.80841944,.0001421,97.2834,238.8001,94.4255,265.7176,0,U,69722,999,478,.12698347E-2,.250503E-2,0
STARLINK-38007,2026-147V,2026-07-21T01:04:50.754432,15.80861872,.00008395,97.2837,238.7959,62.7984,297.3370,0,U,69723,999,478,.10028352E-2,.196754E-2,0
STARLINK-38008,2026-147W,2026-07-21T00:59:14.301600,15.80888268,.00020164,97.2827,238.8011,109.5484,250.6002,0,U,69724,999,478,.10850528E-2,.213574E-2,0
STARLINK-38021,2026-147X,2026-07-21T02:29:41.844192,15.79268625,.0001965,97.2845,238.8701,345.8947,14.2265,0,U,69725,999,479,-.75506231E-2,-.1199514E-1,0
STARLINK-38015,2026-147Y,2026-07-21T06:00:02.999808,15.75253504,.0001239,97.2850,238.9958,83.4420,317.3279,0,U,69726,999,480,-.12347334E-2,-.18095E-2,0
STARLINK-38010,2026-147Z,2026-07-21T02:00:00.324576,15.75234389,.00007432,97.2841,238.7438,25.4325,334.6977,0,U,69727,999,478,.77915379E-3,.117928E-2,0
SXM-11,2026-148A,2026-07-21T06:08:38.557248,1.00271001,.00020821,0.0959,264.8117,188.6040,177.2260,0,U,69728,999,38,0,.11E-6,0
HAIYANG-2E,2026-149A,2026-07-21T06:03:17.283168,13.79298710,.00015173,99.3445,209.0948,84.5350,275.5975,0,U,69737,999,265,.6296053E-5,-.38E-6,0
CZ-4B R/B,2026-149B,2026-07-20T23:57:54.813312,14.30069024,.01978973,99.3219,210.4320,313.3388,45.1444,0,U,69738,999,296,.37488204E-4,.61E-6,0
STARLINK-38033,2026-150A,2026-07-21T02:21:22.300128,15.80871184,.0000525,97.2843,40.8017,4.6993,355.4280,0,U,69739,999,425,.64689727E-3,.125888E-2,0
STARLINK-38076,2026-150B,2026-07-21T00:15:43.164864,15.75206888,.00023208,97.2835,40.6115,74.3701,285.7820,0,U,69740,999,423,.10092066E-2,.153252E-2,0
STARLINK-38074,2026-150C,2026-07-21T06:00:02.999808,15.75241212,.00014492,97.2856,40.9418,83.3667,11.8221,0,U,69741,999,426,-.10792535E-2,-.158514E-2,0
STARLINK-38041,2026-150D,2026-07-21T02:46:39.216288,15.75227517,.00005541,97.2860,40.7767,119.2765,240.8556,0,U,69742,999,425,.80846712E-3,.122398E-2,0
STARLINK-38087,2026-150E,2026-07-21T02:35:59.004384,15.75192735,.00007539,97.2850,40.7862,97.2972,262.8379,0,U,69743,999,425,.12443882E-2,.189682E-2,0
STARLINK-38078,2026-150F,2026-07-21T00:43:15.554496,15.80867225,.00021817,97.2856,40.7402,57.2378,302.9101,0,U,69744,999,424,.13641222E-2,.27004E-2,0
STARLINK-38047,2026-150G,2026-07-21T02:44:06.309024,15.75191013,.00010112,97.2863,40.7793,245.0774,115.0387,0,U,69745,999,425,.98584211E-3,.149522E-2,0
STARLINK-38046,2026-150H,2026-07-21T06:00:02.999808,15.75240006,.00014534,97.2856,40.9635,93.1009,52.0837,0,U,69746,999,427,-.10524379E-2,-.15464E-2,0
STARLINK-38067,2026-150J,2026-07-21T01:30:25.494912,15.75174711,.00020092,97.2850,40.6954,76.7430,283.4059,0,U,69747,999,424,.13054376E-2,.199064E-2,0
STARLINK-37988,2026-150K,2026-07-21T01:27:52.957440,15.75172889,.00016793,97.2848,40.6979,83.0426,277.1030,0,U,69748,999,424,.12225678E-2,.186117E-2,0
